{
"type": "FeatureCollection",
"name": "cascadia_simplified",
"crs": { "type": "name", "properties": { "name": "urn:ogc:def:crs:OGC:1.3:CRS84" } },
"features": [
{ "type": "Feature", "properties": { }, "geometry": { "type": "Polygon", "coordinates": [ [ [ -122.058138783015494, 42.005511658352255 ], [ -117.444007329127828, 41.999534482226352 ], [ -117.414116948060794, 41.981544157918783 ], [ -117.362838127439872, 41.988557391025942 ], [ -117.337076897492068, 41.959190663443451 ], [ -117.344075603598654, 41.93684218462068 ], [ -117.308172416551017, 41.850592731093066 ], [ -117.319726449818987, 41.824094957634379 ], [ -117.290516379086299, 41.759521898712507 ], [ -117.207945315973276, 41.717193934201795 ], [ -117.136245005963588, 41.7051445213094 ], [ -117.14450718263582, 41.690188249168834 ], [ -117.127974295296127, 41.660222249406701 ], [ -117.066532760204112, 41.620743142575392 ], [ -116.974430686910949, 41.631377283846163 ], [ -116.941058358547522, 41.614256635978613 ], [ -116.873174718888848, 41.639676616645609 ], [ -116.80173269608288, 41.631378801953332 ], [ -116.771869560020107, 41.583961541395979 ], [ -116.732367287159676, 41.559024606351898 ], [ -116.747199369917453, 41.538435275315585 ], [ -116.737583637826219, 41.482769451481957 ], [ -116.667028117458415, 41.454755008905664 ], [ -116.642605285655762, 41.430551046045494 ], [ -116.659949422663956, 41.410075752272952 ], [ -116.616926496796509, 41.377790574574391 ], [ -116.59285484698114, 41.382300361676883 ], [ -116.577743654969652, 41.407095048110278 ], [ -116.510704329270069, 41.425555733787938 ], [ -116.504738525840096, 41.406892292393906 ], [ -116.459520706713079, 41.404070599263513 ], [ -116.454005280837322, 41.390807803753333 ], [ -116.411100126798544, 41.398788673562741 ], [ -116.404738453789165, 41.374353575247156 ], [ -116.356878557359209, 41.387691391451185 ], [ -116.327050158250159, 41.356094034825674 ], [ -116.338242452529627, 41.313208446702127 ], [ -116.354897185557846, 41.308708807900196 ], [ -116.335230532536031, 41.291756345052647 ], [ -116.336385963620742, 41.259709526925938 ], [ -116.306902828397867, 41.258633968028732 ], [ -116.304946231233728, 41.240249836972943 ], [ -116.317724656555868, 41.239695747761466 ], [ -116.297398674251468, 41.220214711339715 ], [ -116.301502102112494, 41.170354466145049 ], [ -116.206968769943913, 41.127770678300983 ], [ -116.180934218587737, 41.141908438891932 ], [ -116.177690016719509, 41.172949206095325 ], [ -116.144235976699562, 41.205570222748953 ], [ -116.062674036060969, 41.235997396035977 ], [ -116.021583963088077, 41.221697583910384 ], [ -115.982186111294581, 41.241046422583509 ], [ -115.990233955329941, 41.285692700687427 ], [ -116.018660452589771, 41.322255546270732 ], [ -115.980400643192056, 41.335672746420514 ], [ -115.964639308968401, 41.381183843137954 ], [ -115.999591219656054, 41.468212719329301 ], [ -115.967993845513078, 41.536539068448 ], [ -115.993691645418693, 41.558025730657889 ], [ -115.97697812394334, 41.599925218689755 ], [ -115.815456084344788, 41.550704477081879 ], [ -115.764718763685551, 41.512164526700559 ], [ -115.766862359549151, 41.499939986442527 ], [ -115.732904949458046, 41.495869541680996 ], [ -115.7091435121648, 41.58411602223115 ], [ -115.622172876285958, 41.617390202263415 ], [ -115.607854788872487, 41.561842555382356 ], [ -115.560213469619171, 41.55169813825426 ], [ -115.558553242836936, 41.528717389168271 ], [ -115.509448735072439, 41.489089679854985 ], [ -115.442822226568424, 41.397429615491255 ], [ -115.40786768741026, 41.413150923383796 ], [ -115.351619085701969, 41.514274304438977 ], [ -115.368144485583798, 41.548909688020068 ], [ -115.399430417411011, 41.544583252194549 ], [ -115.41109448441982, 41.583197798272991 ], [ -115.424965033853681, 41.680812792628679 ], [ -115.415050266977431, 41.708228749238032 ], [ -115.434171582434701, 41.74342892996011 ], [ -115.419943373262029, 41.779787061078338 ], [ -115.34090910139011, 41.754344568922477 ], [ -115.332186472557723, 41.690377901443313 ], [ -115.21224219052003, 41.663610188993282 ], [ -115.167669976214668, 41.616256963198097 ], [ -115.13521627494228, 41.604920847674322 ], [ -115.118571655147534, 41.574126061892862 ], [ -115.062668882365742, 41.56985043636957 ], [ -115.015573549260651, 41.504479574871027 ], [ -115.01530987216519, 41.465397418731925 ], [ -114.934894498934412, 41.432445324658019 ], [ -114.731343001900726, 41.506808870931451 ], [ -114.682426058774269, 41.510778805573175 ], [ -114.626174620186333, 41.651155235986074 ], [ -114.565288546672136, 41.705687590255756 ], [ -114.527071698304596, 41.705402312183807 ], [ -114.497154394728483, 41.736348718895556 ], [ -114.47716090765681, 41.799202101429366 ], [ -114.487962516534409, 41.825007927058259 ], [ -114.447880530278411, 41.848967762340443 ], [ -114.43727238797031, 41.824689103840619 ], [ -114.310176695210856, 41.747027450875251 ], [ -114.294815544276602, 41.708489475155758 ], [ -114.270534267199793, 41.702687114764693 ], [ -114.263008867164018, 41.681528954513901 ], [ -114.208508169606318, 41.711174868846236 ], [ -114.127168007739996, 41.704649336171528 ], [ -114.096558868444461, 41.687488715648989 ], [ -114.078237664444458, 41.699443906168938 ], [ -114.045335112753847, 41.788803944205277 ], [ -114.000896024282014, 41.792616314719083 ], [ -114.000894296821727, 41.868221437954951 ], [ -113.930849028518452, 41.845754139972165 ], [ -113.866310132869501, 41.889517668962405 ], [ -113.779650253891845, 41.856438990288602 ], [ -113.750455956677214, 41.790866731986036 ], [ -113.709898776907295, 41.75094812110919 ], [ -113.67700430915589, 41.775669828548395 ], [ -113.669359452051935, 41.849505430553663 ], [ -113.644600985404622, 41.871412174049347 ], [ -113.55321993229785, 41.861501417622719 ], [ -113.420829547694254, 41.903977992891441 ], [ -113.263240093457711, 41.921225807893315 ], [ -113.232689213501615, 41.944426134098997 ], [ -113.206019259490475, 41.999655238573517 ], [ -113.13983696250456, 42.032725217264733 ], [ -113.143762876078966, 42.070292767663112 ], [ -113.102025101616547, 42.109426615914103 ], [ -113.119223418697928, 42.11730655805578 ], [ -113.122397382192389, 42.14705764019746 ], [ -113.008861214267654, 42.223022117505955 ], [ -112.945640146242226, 42.224106791494108 ], [ -112.919757328422392, 42.233729697136425 ], [ -112.915838933746912, 42.256305243661323 ], [ -112.826003210202572, 42.26487575627371 ], [ -112.806575149720189, 42.285086530267208 ], [ -112.796682392466693, 42.342155036559099 ], [ -112.726569955332991, 42.362046368619986 ], [ -112.715690439164078, 42.443793515989462 ], [ -112.690457746488391, 42.464066838292595 ], [ -112.656078568388239, 42.470421669645951 ], [ -112.649757477670121, 42.387572509967924 ], [ -112.540965314557468, 42.341078554757345 ], [ -112.511444048545727, 42.350386653505005 ], [ -112.529706288927102, 42.367256223671887 ], [ -112.496998332988269, 42.436934384993094 ], [ -112.503154141778964, 42.470441233519431 ], [ -112.488449167040613, 42.481350200135807 ], [ -112.482933318058343, 42.525726054979735 ], [ -112.449261349445408, 42.559563750005566 ], [ -112.413735256289385, 42.556400938212469 ], [ -112.39731683946971, 42.49788878753408 ], [ -112.365192397698394, 42.481613546647715 ], [ -112.350332527353928, 42.452791330201244 ], [ -112.298791215413729, 42.454100545240465 ], [ -112.293119113470922, 42.397522961997041 ], [ -112.330209563405404, 42.347304499879733 ], [ -112.327867602459122, 42.328417464397575 ], [ -112.283370459463754, 42.319102864597149 ], [ -112.250577653154764, 42.342244788911621 ], [ -112.202488431205822, 42.348069544453963 ], [ -112.157333574098772, 42.296300678514172 ], [ -112.100706942454295, 42.270465098430719 ], [ -112.099495275934459, 42.291280012785862 ], [ -112.073210528500312, 42.30782572416733 ], [ -112.087879109791544, 42.327951585089394 ], [ -112.047191069739227, 42.348319580117547 ], [ -112.020687045340836, 42.390969485321904 ], [ -111.973960850647231, 42.391893380064658 ], [ -111.957824359299664, 42.417335091578629 ], [ -111.95166338789106, 42.435850627450712 ], [ -111.975281277995151, 42.476814289925393 ], [ -111.953834206300996, 42.490588492872277 ], [ -111.951835578761347, 42.519159729523082 ], [ -111.929375219104813, 42.523391414669014 ], [ -111.943239332109655, 42.546517717567504 ], [ -111.897919706911509, 42.545886966064593 ], [ -111.897176495642668, 42.57894483854205 ], [ -111.833825688432313, 42.589500143014121 ], [ -111.6564544476972, 42.69087271518741 ], [ -111.715344341580888, 42.758254802651017 ], [ -111.65362182784105, 42.838767621701223 ], [ -111.634898000727318, 42.815008737542591 ], [ -111.602785437379012, 42.808691639983138 ], [ -111.576646687738119, 42.760100866694017 ], [ -111.522163649262268, 42.77782798485508 ], [ -111.506125471336034, 42.73034687641951 ], [ -111.452789352407649, 42.687063128139442 ], [ -111.45033380129027, 42.651675273428317 ], [ -111.410576667400605, 42.636238075972457 ], [ -111.39683925637668, 42.605217185949996 ], [ -111.337474930750432, 42.584864591647367 ], [ -111.333113149210305, 42.567045931135254 ], [ -111.277371344645957, 42.554215586907688 ], [ -111.241741505956114, 42.601128114799124 ], [ -111.220790008753056, 42.571986676567114 ], [ -111.247178185514088, 42.497991421422981 ], [ -111.233229982113812, 42.478471960425672 ], [ -111.070082236192775, 42.492178004817845 ], [ -111.065841244820675, 42.508216754094903 ], [ -111.042351452679469, 42.513897340921901 ], [ -111.004609648705511, 42.50210026485923 ], [ -110.98123809821189, 42.508219863882097 ], [ -110.981721102577225, 42.533621679074933 ], [ -110.958333847735801, 42.542975991306243 ], [ -110.928626459780332, 42.531789290360017 ], [ -110.891192724948226, 42.48717383505852 ], [ -110.85882615576682, 42.485963742076315 ], [ -110.825475590887805, 42.534009836155946 ], [ -110.752364659082389, 42.576193862915908 ], [ -110.76091819713055, 42.602512436500191 ], [ -110.750055628577769, 42.605552622241078 ], [ -110.721726059537104, 42.587739636895577 ], [ -110.694717719141593, 42.52669325339032 ], [ -110.627340036702066, 42.53360340723178 ], [ -110.614388822231646, 42.540676173731093 ], [ -110.614650658679096, 42.577691300664895 ], [ -110.628990933581747, 42.584582804142499 ], [ -110.632220577352484, 42.637103012824184 ], [ -110.616062742932087, 42.646054287372401 ], [ -110.611845750052794, 42.677202194033413 ], [ -110.640271699340303, 42.679730643555068 ], [ -110.642053995491551, 42.709634722048449 ], [ -110.61964148100536, 42.720189580309942 ], [ -110.635168990947108, 42.738791039200478 ], [ -110.639696654489285, 42.801581789233033 ], [ -110.579585167701879, 42.792180231275779 ], [ -110.576487998486115, 42.816304713461108 ], [ -110.617027097864323, 42.908854244026223 ], [ -110.598484794218379, 42.93445805923136 ], [ -110.628984006672596, 42.95833923304928 ], [ -110.64372914329067, 42.996124194937458 ], [ -110.572439533147389, 42.996680507585793 ], [ -110.54981746057004, 42.969212592210802 ], [ -110.493567017315414, 43.001569584745837 ], [ -110.463332172761099, 43.048268310520044 ], [ -110.412505169693802, 43.047847745605019 ], [ -110.354175896412642, 43.071496227901598 ], [ -110.302655507133721, 43.065885014641559 ], [ -110.272440318616148, 43.096413182838795 ], [ -110.212818065112273, 43.108006073911547 ], [ -110.191308043974587, 43.144514518610862 ], [ -110.193026628910928, 43.217572131152444 ], [ -110.165745135990349, 43.222784157836969 ], [ -110.16282932405403, 43.237626517715334 ], [ -110.18413402355543, 43.273625519000682 ], [ -110.247194999220838, 43.286029690669537 ], [ -110.262407201396144, 43.331427735779783 ], [ -110.126727513208849, 43.406955585832996 ], [ -110.084132830407029, 43.406086121820188 ], [ -110.09768384100947, 43.432669389822323 ], [ -110.056394042006218, 43.457467008453754 ], [ -110.033042532926586, 43.45691643335519 ], [ -110.022132180288921, 43.436379487589342 ], [ -109.998895560344224, 43.445264418176805 ], [ -109.972927517556755, 43.423871623550291 ], [ -109.944873509424426, 43.424072131781635 ], [ -109.890000042464877, 43.383755070042412 ], [ -109.78299456826521, 43.386899483975618 ], [ -109.786664044267013, 43.401076164692839 ], [ -109.764430270267837, 43.407045780211263 ], [ -109.76428685153779, 43.438465998457225 ], [ -109.798236304352102, 43.465573427816572 ], [ -109.824674901753383, 43.460445139756558 ], [ -109.889417354747394, 43.490082545939941 ], [ -109.943468841662437, 43.469252827968589 ], [ -109.951295723494084, 43.495793894333325 ], [ -109.9384467471845, 43.523136707867188 ], [ -109.950957499704785, 43.544053184861852 ], [ -110.059736911231994, 43.589710848967933 ], [ -110.026186555643889, 43.618614554577498 ], [ -110.062025108008541, 43.648357825016809 ], [ -110.023311191251551, 43.6800095356217 ], [ -110.040445970492883, 43.679163363802722 ], [ -110.04433303103292, 43.714858996736197 ], [ -110.083264347275176, 43.741739229302951 ], [ -110.077579116454501, 43.755834656192889 ], [ -110.045001335383489, 43.75782315528366 ], [ -110.028046912698372, 43.799019283241421 ], [ -109.963408250154004, 43.792741388636195 ], [ -109.885300999231092, 43.807582880542682 ], [ -109.885856331451521, 43.82460184342203 ], [ -109.858058507566881, 43.827568556685634 ], [ -109.853784734873429, 43.849400335160922 ], [ -109.816453081895276, 43.861894678447705 ], [ -109.832733502215973, 43.869535596420199 ], [ -109.821829463836423, 43.885986642872702 ], [ -109.858784675998152, 43.900496767735639 ], [ -109.852653381333269, 43.921500624106493 ], [ -109.872682121889923, 43.929714481891729 ], [ -109.858927712944194, 43.95829331562441 ], [ -109.921878835430149, 43.94503928997414 ], [ -109.961212148660366, 43.962512898372154 ], [ -109.997105429985382, 43.948606374039386 ], [ -110.051195357608051, 44.009084197856886 ], [ -110.090998592139783, 43.995579985658019 ], [ -110.138872852631138, 44.002932811016926 ], [ -110.139943663314426, 44.040837835551478 ], [ -110.170328682828043, 44.037370517230784 ], [ -110.199292119302854, 44.055579882254456 ], [ -110.183725406882147, 44.079685694724041 ], [ -110.200120379469553, 44.105096585690724 ], [ -110.183973280815124, 44.13405989492739 ], [ -110.209019832682472, 44.158992262030885 ], [ -110.178293538700828, 44.18271786577602 ], [ -110.280479724776058, 44.186821186926352 ], [ -110.33349659592723, 44.223778987897084 ], [ -110.388047759939241, 44.216250502186341 ], [ -110.35912590108903, 44.307817427185896 ], [ -110.415654133972225, 44.348356865630052 ], [ -110.454498787044088, 44.327483069670386 ], [ -110.47831152442825, 44.344063945633508 ], [ -110.519936490253912, 44.332903193445752 ], [ -110.568422728930855, 44.341644308085641 ], [ -110.664114773729949, 44.414064720962237 ], [ -110.637523582206271, 44.427578356953248 ], [ -110.619590598631063, 44.479639122438314 ], [ -110.648201096013878, 44.490167772405798 ], [ -110.735311782838778, 44.476085285982094 ], [ -110.719099037100023, 44.422580663128898 ], [ -110.842116300316135, 44.373478222291418 ], [ -110.833937944544729, 44.336196506670937 ], [ -110.873208334382539, 44.335797508621155 ], [ -110.997269616926914, 44.467732728681938 ], [ -111.108969697581159, 44.489183748903258 ], [ -111.135678086011737, 44.507155693494518 ], [ -111.135228217802293, 44.530919812791574 ], [ -111.179725191016075, 44.551381053395005 ], [ -111.180033970725304, 44.570012797533508 ], [ -111.225275221508198, 44.575418652327635 ], [ -111.238655056336626, 44.613105689640754 ], [ -111.220659930903295, 44.621695430415294 ], [ -111.235235641665525, 44.640836746491622 ], [ -111.277661692722205, 44.651540829177918 ], [ -111.266501062259877, 44.666422073036998 ], [ -111.276545373386625, 44.682509500631532 ], [ -111.325265771417094, 44.728913097862709 ], [ -111.351640587534931, 44.725054088194312 ], [ -111.376442821001163, 44.752158493479847 ], [ -111.393354160485245, 44.748860252061682 ], [ -111.411543138763633, 44.712070775292695 ], [ -111.437120844695528, 44.721514605158632 ], [ -111.489012318136858, 44.704557209346333 ], [ -111.468973190360572, 44.677456990619703 ], [ -111.486155170680178, 44.649391480321562 ], [ -111.513983809474027, 44.643959200154242 ], [ -111.501966774627149, 44.625019673657185 ], [ -111.523996359765576, 44.606914985657042 ], [ -111.507247936046468, 44.564865293091337 ], [ -111.466998258581469, 44.556128665952464 ], [ -111.467366953225209, 44.539115725395121 ], [ -111.510899140315431, 44.535683326870952 ], [ -111.584426365796517, 44.561970846341637 ], [ -111.615035223021081, 44.55037781527345 ], [ -111.702147708273174, 44.558869046542014 ], [ -111.81530939011553, 44.509326100518805 ], [ -111.867332781156307, 44.563938827564037 ], [ -111.943031679345211, 44.556132609009389 ], [ -111.972520143374354, 44.534459551466078 ], [ -112.030878661309572, 44.54574685632312 ], [ -112.035102956593803, 44.528148326705534 ], [ -112.069573065760267, 44.534578943024783 ], [ -112.105775905633863, 44.518829379312173 ], [ -112.135670891465054, 44.535823710423479 ], [ -112.219723016868471, 44.540979814205407 ], [ -112.236560562446897, 44.563670873943245 ], [ -112.287974666654677, 44.565615342218294 ], [ -112.31607649300787, 44.538458877598337 ], [ -112.356066189046516, 44.53159221905041 ], [ -112.35944328228797, 44.486973853508879 ], [ -112.386333116032901, 44.448649331580789 ], [ -112.433564309443256, 44.453102688363366 ], [ -112.470604652249506, 44.477030166829827 ], [ -112.503406279116291, 44.46173994706735 ], [ -112.540256465644845, 44.481867326147857 ], [ -112.661680728401336, 44.485107116114818 ], [ -112.718065880321035, 44.50416496994918 ], [ -112.780211922767876, 44.483665622652012 ], [ -112.839500618332025, 44.425359384214403 ], [ -112.80952766232744, 44.377752134068999 ], [ -112.846788397805497, 44.35715858632922 ], [ -112.889588515431328, 44.40481188018677 ], [ -112.945906283823234, 44.414307610185745 ], [ -113.003323982686666, 44.452030210250641 ], [ -113.025145380563089, 44.494600720170276 ], [ -113.006143584157755, 44.523754226725053 ], [ -113.042971724232629, 44.540747270327827 ], [ -113.038378768440666, 44.56433257019178 ], [ -113.088085120496075, 44.598906482975359 ], [ -113.048436280310511, 44.636010550159391 ], [ -113.067225098738405, 44.678984277362204 ], [ -113.100875279612438, 44.706100163082247 ], [ -113.101289473027009, 44.728153861593796 ], [ -113.134982534082837, 44.755170118574028 ], [ -113.133524017709433, 44.774015709605543 ], [ -113.246822328814915, 44.821721154612881 ], [ -113.343025151192961, 44.786095609667093 ], [ -113.356025072318062, 44.819954272465495 ], [ -113.422303957959954, 44.838373353634694 ], [ -113.47625892718591, 44.896186908293018 ], [ -113.49722351913087, 44.944803548323279 ], [ -113.445218569604535, 44.955840034706135 ], [ -113.437730729029099, 45.006142600713119 ], [ -113.451988083142822, 45.058040111277521 ], [ -113.51968747923506, 45.08689522249017 ], [ -113.51129898685744, 45.113186660733724 ], [ -113.572318567090832, 45.12424022809126 ], [ -113.568120509799428, 45.147015879777385 ], [ -113.590879309556286, 45.155143505327906 ], [ -113.595042620012507, 45.185380329218084 ], [ -113.684338276408013, 45.25171316785935 ], [ -113.682769111846127, 45.280821137556437 ], [ -113.740132666552455, 45.328240329208597 ], [ -113.733860816986635, 45.389231798065055 ], [ -113.775973188024196, 45.406486400269728 ], [ -113.761294741434511, 45.425385442785327 ], [ -113.785067849639915, 45.451354155297899 ], [ -113.760164389515879, 45.481212092956646 ], [ -113.772219497659435, 45.521064257481022 ], [ -113.835300442873617, 45.519865784182677 ], [ -113.80059640432232, 45.58741880014145 ], [ -113.852467918096337, 45.621863708632077 ], [ -113.9074720459123, 45.621100767284389 ], [ -113.893726156588713, 45.643323278050161 ], [ -113.934102250370429, 45.674419827815171 ], [ -113.937886539150369, 45.69529215227427 ], [ -113.908010145750637, 45.703892864585328 ], [ -113.912234637765891, 45.750852977542202 ], [ -113.868417410744456, 45.779325262871509 ], [ -113.851338433950261, 45.749513544083449 ], [ -113.832486108225055, 45.750525955058286 ], [ -113.800906101211453, 45.762017717319814 ], [ -113.793908783001967, 45.79206751149384 ], [ -113.711066843694809, 45.838259124595069 ], [ -113.627307788262968, 45.840225733546333 ], [ -113.594005038909884, 45.849897428871103 ], [ -113.584461243906603, 45.872071743869377 ], [ -113.526787814444717, 45.882097388628225 ], [ -113.540005798011777, 45.903582600759549 ], [ -113.520597221987913, 45.942262955810143 ], [ -113.48055547127349, 45.941433176976865 ], [ -113.464285085134534, 45.98516382386191 ], [ -113.419149705299461, 45.989642739383029 ], [ -113.379070817332874, 46.017775192449484 ], [ -113.335217862515961, 46.007258120797601 ], [ -113.273440945904198, 46.060707813629939 ], [ -113.218718330335349, 46.047030775567038 ], [ -113.157590131207712, 46.06431593861987 ], [ -113.106447117891435, 46.059244287611797 ], [ -112.999466330294084, 46.021754358792919 ], [ -112.962291717200642, 46.022942668341514 ], [ -112.925328886426982, 46.003952968128843 ], [ -112.939430982015239, 45.988563006397953 ], [ -112.933942667294716, 45.953022410828282 ], [ -112.907448521669508, 45.921607526622743 ], [ -112.892742141067785, 45.933102755802651 ], [ -112.75951182897856, 45.926419895985582 ], [ -112.755099686985275, 45.909029523161614 ], [ -112.692723537485122, 45.880455128540028 ], [ -112.613426940482242, 45.902218425398274 ], [ -112.588128200971937, 45.837234947302512 ], [ -112.52881368153831, 45.79197141413885 ], [ -112.508268301895427, 45.793685195687374 ], [ -112.500282365257874, 45.822588083034319 ], [ -112.458379362766934, 45.815484367327961 ], [ -112.451993378650997, 45.847604482061243 ], [ -112.426778142037904, 45.854135452905489 ], [ -112.403846299807867, 45.890507840618099 ], [ -112.443611292159673, 45.958136319520818 ], [ -112.43706352774926, 46.014960059739479 ], [ -112.474185421413637, 46.041125321749796 ], [ -112.465707124457055, 46.092714777474683 ], [ -112.516783415405598, 46.134702115884004 ], [ -112.507582574719919, 46.182522963863079 ], [ -112.571973781047944, 46.177241518905163 ], [ -112.575305169804366, 46.212742336182359 ], [ -112.599281248754977, 46.234907201589785 ], [ -112.565538643814591, 46.252834980699809 ], [ -112.555625604398614, 46.274299774600173 ], [ -112.568460428649246, 46.301391248367878 ], [ -112.530858653163477, 46.331962049634527 ], [ -112.493176174829188, 46.341736446494586 ], [ -112.452809734343546, 46.32893873906449 ], [ -112.45136618839436, 46.348306587580375 ], [ -112.416711932679476, 46.37592260132287 ], [ -112.351093006039179, 46.383650346388379 ], [ -112.308497221902797, 46.419696474006578 ], [ -112.32393369298039, 46.433919779228653 ], [ -112.305552992660793, 46.449520818320039 ], [ -112.29639561696014, 46.531425528472404 ], [ -112.316522875754018, 46.571602798248755 ], [ -112.298810881331931, 46.617698991480815 ], [ -112.324602074586053, 46.674544126728144 ], [ -112.313688688337677, 46.693929729999681 ], [ -112.322521816238222, 46.729463612742585 ], [ -112.34505003732626, 46.735406419980905 ], [ -112.386904444553593, 46.713129130237292 ], [ -112.462523271409637, 46.722258432396956 ], [ -112.515825181593712, 46.737667112020276 ], [ -112.514129008725376, 46.752088203307167 ], [ -112.54148951117017, 46.77034975480764 ], [ -112.516461193306441, 46.83160748398624 ], [ -112.463397173179274, 46.858039112958188 ], [ -112.497408271083344, 46.882975538892417 ], [ -112.485300757022713, 46.910756836638214 ], [ -112.438950639327857, 46.951126523926405 ], [ -112.340183004642782, 46.98094954459674 ], [ -112.327845244289989, 47.013024196717787 ], [ -112.310353579657658, 47.01853474382721 ], [ -112.324639077989247, 47.058606428231343 ], [ -112.41494241955472, 47.107405899443563 ], [ -112.438496298406619, 47.159589499734309 ], [ -112.483740312407306, 47.173602286578749 ], [ -112.551290580077534, 47.168841255187097 ], [ -112.596490935057105, 47.193337552702545 ], [ -112.602642932296021, 47.22655796048506 ], [ -112.737647993789793, 47.239186572064348 ], [ -112.731494991336064, 47.285275020709093 ], [ -112.861477796655123, 47.307913692996216 ], [ -112.931430661553335, 47.343400815194883 ], [ -112.917045478971318, 47.384594661796839 ], [ -112.977871378836184, 47.420381301975951 ], [ -113.016371180348557, 47.487488941624385 ], [ -113.112868792073613, 47.494044918077641 ], [ -113.125695376078127, 47.538629554148443 ], [ -113.116912640071774, 47.567862045177648 ], [ -113.14651408162095, 47.599182057918505 ], [ -113.129263365809052, 47.662147401984392 ], [ -113.165403496089283, 47.724208126752714 ], [ -113.139847490759706, 47.744754695552942 ], [ -113.084503526678489, 47.748377481328369 ], [ -113.062176839929492, 47.787479797395378 ], [ -113.060550674567892, 47.884264412621022 ], [ -113.092154477953343, 47.90835914234043 ], [ -112.981628015675071, 47.953691157949599 ], [ -112.90763078624741, 47.951785332839705 ], [ -112.881818230157521, 47.978399922386572 ], [ -112.895742730610706, 48.017382053174693 ], [ -112.949602744317872, 48.033670485309649 ], [ -112.936904373260589, 48.059800347837566 ], [ -112.982677392555686, 48.0737814993726 ], [ -112.996825920264314, 48.102696007354247 ], [ -112.984679340268627, 48.118558748142043 ], [ -113.000036623955594, 48.129905464034124 ], [ -113.053263340658802, 48.119882366091176 ], [ -113.049807154349821, 48.137581131898372 ], [ -113.077610626840993, 48.156883819845923 ], [ -113.085183059071809, 48.138119201486603 ], [ -113.131369757046812, 48.136737479212485 ], [ -113.189210498628682, 48.175342378688569 ], [ -113.207393733079144, 48.163387931617777 ], [ -113.232512938890054, 48.171903945955727 ], [ -113.236459070846536, 48.216009947668333 ], [ -113.224874810167549, 48.22514428032207 ], [ -113.236560126824429, 48.245973306491003 ], [ -113.327172099877117, 48.28917496035325 ], [ -113.387448821879573, 48.344094905684578 ], [ -113.332828897222413, 48.383272948297169 ], [ -113.355740072811031, 48.422940567298355 ], [ -113.412770813382707, 48.419783804988974 ], [ -113.479490599352545, 48.454636959282908 ], [ -113.466579732713129, 48.475609312273868 ], [ -113.468982619198627, 48.549881143670767 ], [ -113.544144918634018, 48.586584940750981 ], [ -113.601408547443086, 48.574062452957733 ], [ -113.641412601254927, 48.600062438879732 ], [ -113.666669525985384, 48.582568444595339 ], [ -113.751718530724204, 48.615308762021783 ], [ -113.727204083339004, 48.638745157690728 ], [ -113.7453889715879, 48.648572614637359 ], [ -113.725156768009256, 48.67118679250688 ], [ -113.739578528193036, 48.691540706923369 ], [ -113.702747381456874, 48.716789872966388 ], [ -113.711386161540631, 48.740796681705682 ], [ -113.772669582362866, 48.78883032476552 ], [ -113.760080134728739, 48.817385362307945 ], [ -113.790710338619391, 48.843826241108601 ], [ -113.841798043561909, 48.855268253798641 ], [ -113.874030330778041, 48.834858024719594 ], [ -113.909974325594078, 48.850605709539735 ], [ -113.923326343191434, 48.820125761064922 ], [ -114.009465389747163, 48.829495144492654 ], [ -113.987933525175023, 48.843311218949161 ], [ -114.000758334108539, 48.865111520270474 ], [ -114.056071314397272, 48.888028108679194 ], [ -114.014734752693556, 48.906394303175951 ], [ -114.047714128307291, 48.937571695824438 ], [ -114.023349414808578, 48.961597854907247 ], [ -114.048788681372059, 48.963517080094434 ], [ -114.06844048793721, 48.998867489179304 ], [ -122.755972241886241, 49.002259351616004 ], [ -122.765311000019167, 48.991924787742377 ], [ -122.724354838905683, 48.972790388385356 ], [ -122.724850799672353, 48.954665251840595 ], [ -122.783287093744903, 48.970820177314643 ], [ -122.788923524486066, 48.978647822969826 ], [ -122.772386805831658, 48.986811476995847 ], [ -122.772343343541579, 48.991660019673887 ], [ -122.795547527118003, 48.975214452952727 ], [ -122.815963664344324, 48.956609781045842 ], [ -122.821347595727133, 48.945465835990987 ], [ -122.745332541762181, 48.931224485047423 ], [ -122.750017135594646, 48.91121017727756 ], [ -122.791895573654131, 48.89249213376938 ], [ -122.71738388265652, 48.849486421074062 ], [ -122.708472760328078, 48.786384800698741 ], [ -122.698558856732774, 48.804971958310652 ], [ -122.645046654533942, 48.78510944484092 ], [ -122.671781945710649, 48.734846992121874 ], [ -122.650664163162006, 48.71561425742162 ], [ -122.589266143360661, 48.789602047208255 ], [ -122.483129632891519, 48.75208432309654 ], [ -122.518294287994635, 48.713157718222703 ], [ -122.506051202886283, 48.690102732600764 ], [ -122.507255581374224, 48.698429385133387 ], [ -122.494202519510154, 48.700648788607403 ], [ -122.488432296385511, 48.671421782381721 ], [ -122.510562651837603, 48.668144379666494 ], [ -122.487868183133187, 48.645996000834053 ], [ -122.593179926983765, 48.625859724052447 ], [ -122.712501005488051, 48.645255409807056 ], [ -122.70472888136284, 48.670856835142693 ], [ -122.797993054833427, 48.764446395730239 ], [ -123.007098631351255, 48.829852747387989 ], [ -123.007338927096484, 48.766062530250203 ], [ -123.275351304689963, 48.693342547141306 ], [ -123.217667268819525, 48.54876177388509 ], [ -123.159739350230879, 48.454178318310717 ], [ -123.114610917966232, 48.423230168264027 ], [ -123.248023676991323, 48.284363502630761 ], [ -122.950639339674524, 48.348928793497855 ], [ -122.950811615884803, 48.108785110972363 ], [ -122.901653378086493, 48.107107111863236 ], [ -122.907754825327771, 48.076405170262873 ], [ -122.895889324591224, 48.065688484100896 ], [ -122.925926573919014, 48.065181010498328 ], [ -122.916435078831583, 48.096016419962588 ], [ -122.975854672407351, 48.096863045414658 ], [ -123.039811052815338, 48.08069992369456 ], [ -123.005524343697289, 48.068353693743489 ], [ -122.994839603841569, 48.027443753504322 ], [ -123.012836381276699, 48.027209223612395 ], [ -123.044850321284898, 48.057809457847604 ], [ -123.052505631185511, 48.083223038066237 ], [ -123.038959092396553, 48.083615292372635 ], [ -123.065264883764527, 48.120743151571141 ], [ -123.111975250142834, 48.151890709132275 ], [ -123.145672892606598, 48.151942895953624 ], [ -123.148257479527999, 48.15887630652977 ], [ -123.152495995143155, 48.150494566551579 ], [ -123.176695300051961, 48.146438231857658 ], [ -123.183946164157149, 48.146606836559101 ], [ -123.1842705601793, 48.147101135758085 ], [ -123.101395846737319, 48.185099278606351 ], [ -123.150384377507066, 48.173754443618883 ], [ -123.23965819226477, 48.117596813568184 ], [ -123.31693524894817, 48.113270974813318 ], [ -123.412356495706561, 48.116288140283316 ], [ -123.463306445796903, 48.13460096581484 ], [ -123.421803600544209, 48.142066315261147 ], [ -123.507178211335855, 48.132157470973269 ], [ -123.550280798904353, 48.151653643398937 ], [ -123.624776895148642, 48.138946889176857 ], [ -123.707570476347442, 48.168184258200739 ], [ -123.860452830360401, 48.154383544009548 ], [ -124.034479160897405, 48.175036831563169 ], [ -124.107025355121351, 48.200605484605802 ], [ -124.110275668228439, 48.220889535218014 ], [ -124.23593086302246, 48.262532173798526 ], [ -124.274140740463395, 48.25453957722064 ], [ -124.394436809952865, 48.287782185083977 ], [ -124.563934705294869, 48.368338667237559 ], [ -124.618803637558855, 48.367066645167526 ], [ -124.657964128403137, 48.391439602622569 ], [ -124.730456465032532, 48.381491649811039 ], [ -124.686315548963094, 48.339177263108979 ], [ -124.678570877352982, 48.344247948885425 ], [ -124.65900321328553, 48.348913528454688 ], [ -124.674356959406893, 48.34319376110912 ], [ -124.653993642220982, 48.323011030387129 ], [ -124.686029634072781, 48.290263966244417 ], [ -124.682797501968722, 48.255977934671151 ], [ -124.705065299659267, 48.239697654404075 ], [ -124.689056281945469, 48.219492219603566 ], [ -124.700066305358874, 48.188559029683816 ], [ -124.735155121092447, 48.171344502109875 ], [ -124.685609190180443, 48.098051196450541 ], [ -124.695563379622953, 48.071119158546971 ], [ -124.674930622649029, 47.967283908696288 ], [ -124.641269697924187, 47.932202246911316 ], [ -124.642731476080371, 47.905863029035608 ], [ -124.610486564839562, 47.871813627980046 ], [ -124.578883676837393, 47.875059920966834 ], [ -124.540323764557783, 47.834383115377044 ], [ -124.490164723582936, 47.819380126713781 ], [ -124.478890732918245, 47.768220373233873 ], [ -124.452216904473289, 47.765663719722951 ], [ -124.422845681368514, 47.737499476976609 ], [ -124.365693506536758, 47.585826688733121 ], [ -124.341626929507783, 47.462939148241134 ], [ -124.327919347042879, 47.461897540620271 ], [ -124.326686555740807, 47.459882675549167 ], [ -124.341378072817889, 47.462348235885315 ], [ -124.341838596843232, 47.436549214363637 ], [ -124.319904776605654, 47.355215653279359 ], [ -124.298208647897297, 47.349506540240647 ], [ -124.278024237386703, 47.304039237372876 ], [ -124.234617140699811, 47.285082931436172 ], [ -124.177688417303401, 47.126631691778975 ], [ -124.167777178111237, 46.987881015508648 ], [ -124.18012877251941, 46.926471228796593 ], [ -124.157313049217933, 46.929682806351501 ], [ -124.129119486907896, 46.940601240855244 ], [ -124.152254947568451, 46.933864414496107 ], [ -124.15727042954758, 46.940095108468469 ], [ -124.122864983810203, 46.963394181936742 ], [ -124.136525321179363, 46.96777688845053 ], [ -124.150165455437829, 47.022192199425668 ], [ -124.116898965682878, 47.042346021492875 ], [ -124.024631083151206, 47.03092538219488 ], [ -124.002849026992649, 47.003995656137491 ], [ -124.010666706482553, 46.985209220290294 ], [ -123.915164075054392, 46.976788487886026 ], [ -123.947068235544961, 46.968888942906318 ], [ -123.805138504395387, 46.970802926108888 ], [ -124.045332103103561, 46.893819121042704 ], [ -124.065050539509969, 46.862923408487823 ], [ -124.02800114258396, 46.87480800169115 ], [ -124.014993123146596, 46.871270476115974 ], [ -124.041301083945982, 46.864473848951057 ], [ -124.005822178393529, 46.842662226948143 ], [ -124.024032951597363, 46.835247568856154 ], [ -124.038477738296791, 46.850352812062447 ], [ -124.077407125856169, 46.844170590473517 ], [ -124.069417445938811, 46.861874805012548 ], [ -124.100234906345364, 46.881209781636734 ], [ -124.091859101772826, 46.901942871524696 ], [ -124.138141596089724, 46.905523625334993 ], [ -124.100876019590601, 46.813871976710956 ], [ -124.093023828624112, 46.72887721173484 ], [ -124.037069845582934, 46.714072126343915 ], [ -124.046737146361352, 46.72596225390329 ], [ -124.027401942933267, 46.726695447261498 ], [ -123.999936306159199, 46.703225475613259 ], [ -123.968647184414408, 46.703665633161485 ], [ -123.990211137706808, 46.713893281821818 ], [ -123.973356555579016, 46.71440692799807 ], [ -123.987499204712435, 46.72328508643475 ], [ -123.976722340827664, 46.73919833111534 ], [ -123.912502542937347, 46.72679649915878 ], [ -123.910402165920388, 46.746386652714882 ], [ -123.884806286171951, 46.749593195303234 ], [ -123.889607637635166, 46.738936806209445 ], [ -123.821569683580307, 46.706328130549856 ], [ -123.92734940747313, 46.673949981390386 ], [ -123.919631295452675, 46.651036787079939 ], [ -123.93910837700011, 46.639305250680252 ], [ -123.920858074330539, 46.631633127361546 ], [ -123.930977071390018, 46.624432628615402 ], [ -123.906482112056594, 46.613136994144817 ], [ -123.91093166169496, 46.603724219743661 ], [ -123.959443614646901, 46.6366616642159 ], [ -123.954363824073198, 46.604225065419648 ], [ -123.892962847017955, 46.548716722215971 ], [ -123.887385848815967, 46.514795607511672 ], [ -123.922191441910115, 46.511361397107457 ], [ -123.941693823609242, 46.487479364566184 ], [ -123.90094613452375, 46.433548325876131 ], [ -123.918117235346955, 46.426193961648067 ], [ -123.924495133727021, 46.455004802382923 ], [ -123.934064990653312, 46.458670891629573 ], [ -123.920388957021174, 46.4219817724127 ], [ -123.95058797496533, 46.402961131409739 ], [ -123.947792998112831, 46.370620971777456 ], [ -123.96438853665542, 46.369348233009759 ], [ -123.968151108663378, 46.383941171382745 ], [ -123.970959281767392, 46.378994422754516 ], [ -123.978675546851619, 46.383662568982608 ], [ -123.99559496937664, 46.37247371725141 ], [ -124.017522436728541, 46.370201675505783 ], [ -124.007218754131458, 46.375449850566142 ], [ -124.020898971217875, 46.392194214608153 ], [ -124.030938334424036, 46.497734335469055 ], [ -124.022475949326093, 46.582838608989746 ], [ -124.050831269472724, 46.625077367048441 ], [ -124.045689981132966, 46.640819582525815 ], [ -124.045301535231076, 46.624678061488986 ], [ -124.028554960244833, 46.632326393612573 ], [ -124.048544250387494, 46.643574264412067 ], [ -124.064621503231962, 46.636109209050169 ], [ -124.058074381116995, 46.323241023124993 ], [ -124.087759509718012, 46.27216652256174 ], [ -124.024572649538584, 46.234179060735713 ], [ -124.008188657058895, 46.238995588844553 ], [ -123.990896690609162, 46.226125862603347 ], [ -124.011809932157519, 46.229708653183216 ], [ -123.940414568745723, 46.111651036362773 ], [ -123.925690131108453, 46.020129807960558 ], [ -123.9105527936306, 46.015256201573159 ], [ -123.935135320737913, 45.976787757038167 ], [ -123.990692598766501, 45.947346964411878 ], [ -123.954728232854734, 45.902344406519966 ], [ -123.978897895155797, 45.764843129087268 ], [ -123.945693798787246, 45.737760320711715 ], [ -123.934447814898164, 45.661651182116898 ], [ -123.929444031678969, 45.691647087627075 ], [ -123.906113261105986, 45.709701375125078 ], [ -123.888748604780062, 45.702349112774272 ], [ -123.891525976449657, 45.716782796998338 ], [ -123.881118203365659, 45.729158717220628 ], [ -123.885146283235642, 45.690945831462038 ], [ -123.923065293374123, 45.688035481965912 ], [ -123.957367446328561, 45.573323192692648 ], [ -123.891113881499578, 45.563598009119701 ], [ -123.903611526701567, 45.54705480548315 ], [ -123.888610476228749, 45.511230837039861 ], [ -123.857085509890908, 45.503172630674271 ], [ -123.891953353539321, 45.471788327402095 ], [ -123.959870334169807, 45.522067661822668 ], [ -123.978607974677629, 45.486650917540182 ], [ -123.932219861839528, 45.401931630151076 ], [ -123.962509251199563, 45.377898733612668 ], [ -123.946394749711871, 45.419277662516294 ], [ -123.959030861231724, 45.42983885063758 ], [ -123.975968063212846, 45.354983853909282 ], [ -124.006668456069889, 45.33873078775504 ], [ -123.972777399138934, 45.336369094332163 ], [ -123.957915674671725, 45.27581570975704 ], [ -123.93194727525308, 45.294708564352476 ], [ -123.959870664749843, 45.270542109435503 ], [ -123.978760050472104, 45.219288613378517 ], [ -123.973755069798628, 45.164979132187852 ], [ -123.96025576712222, 45.211176874538957 ], [ -123.934037354881923, 45.175122804225346 ], [ -123.936386554452767, 45.163311336142492 ], [ -123.950835638692553, 45.182482577831209 ], [ -123.974731201644218, 45.15539292965439 ], [ -123.987914842617982, 45.100125643987461 ], [ -124.014535696512326, 45.065398193606811 ], [ -124.026398419658037, 44.935536227502304 ], [ -124.007217737238562, 44.913039705614338 ], [ -124.00791948047727, 44.899566308077851 ], [ -124.028062469670104, 44.897478311385271 ], [ -124.021529102558745, 44.926379746820508 ], [ -124.066665547795751, 44.834288860929405 ], [ -124.076385606630822, 44.776231852846117 ], [ -124.058059395421424, 44.733596807693715 ], [ -124.080449169954505, 44.676664947361118 ], [ -124.056809674469491, 44.664568480330651 ], [ -124.065414494642283, 44.624706266790973 ], [ -124.011948037352653, 44.628586549438424 ], [ -124.016525454985185, 44.587205925391736 ], [ -123.960280721422507, 44.579563409904679 ], [ -124.019730417543471, 44.581784816996837 ], [ -124.019302700890591, 44.608733458135916 ], [ -124.039167825894694, 44.597625249961901 ], [ -124.025558021455197, 44.61540238759477 ], [ -124.044447841962082, 44.624710891222577 ], [ -124.07125880093011, 44.583311602813886 ], [ -124.082916006606766, 44.431226129375446 ], [ -124.045425910575418, 44.451921913165783 ], [ -124.0251473117073, 44.443174944689702 ], [ -124.085143451218983, 44.419285128093215 ], [ -124.11653102292901, 44.276366082558297 ], [ -124.136672576614018, 44.022067077597747 ], [ -124.122925761127391, 44.021518766433516 ], [ -124.114730853896859, 43.971377247813173 ], [ -124.064163580727666, 43.994980595045412 ], [ -124.073746320393454, 43.975677335725905 ], [ -124.051941023021882, 43.977203713899584 ], [ -124.060562384772282, 43.95692895221076 ], [ -124.109861844021452, 43.964158785001842 ], [ -124.123062558375494, 43.972195995602213 ], [ -124.124744856764281, 43.999370640453328 ], [ -124.133758538850373, 44.01596466580245 ], [ -124.138991566740174, 44.016893995812403 ], [ -124.147549531686039, 43.874748348228863 ], [ -124.206100955642029, 43.671503812076516 ], [ -124.165656355438443, 43.701471321883446 ], [ -124.161805320036237, 43.742338974470762 ], [ -124.140136638453086, 43.751507163021607 ], [ -124.087509342386113, 43.718462306023973 ], [ -124.08084065934861, 43.736101350134724 ], [ -124.011246882510477, 43.760679771551409 ], [ -124.079025668114241, 43.733183176211035 ], [ -124.080978798679709, 43.710537740685886 ], [ -123.995993707276739, 43.699049019632753 ], [ -124.062773710913348, 43.696230066217289 ], [ -124.099731718632228, 43.710538949104397 ], [ -124.112228121464184, 43.696659879839331 ], [ -124.13166809001396, 43.736923873853939 ], [ -124.157053415439592, 43.697900222050457 ], [ -124.202510969763068, 43.666608607857704 ], [ -124.230515725963315, 43.562809977808193 ], [ -124.334578935536484, 43.360393953785817 ], [ -124.279773516857986, 43.417859272885167 ], [ -124.198607695530484, 43.468737544761233 ], [ -124.220703368826065, 43.439716787813168 ], [ -124.188200643793664, 43.422896871223031 ], [ -124.196808555967664, 43.403186384420223 ], [ -124.169723011661674, 43.384017049125198 ], [ -124.167220820913087, 43.363872545571375 ], [ -124.180969030585004, 43.37734619823766 ], [ -124.208053007330818, 43.371795630028707 ], [ -124.216949011013071, 43.424557395058699 ], [ -124.241394232425819, 43.426104497321724 ], [ -124.316527655516424, 43.350950412040639 ], [ -124.318190843145857, 43.338865228748119 ], [ -124.303329755584159, 43.344852453601042 ], [ -124.285278851958225, 43.334701572589573 ], [ -124.316115916299211, 43.332486908070372 ], [ -124.306945826742322, 43.285813400495407 ], [ -124.317231334624566, 43.307207285008204 ], [ -124.321670382058926, 43.284986902972427 ], [ -124.323898397999642, 43.325121401089419 ], [ -124.335006669257325, 43.319427504781359 ], [ -124.327773607066135, 43.351927942630695 ], [ -124.383056461453521, 43.333875963713417 ], [ -124.401672511394381, 43.30790535268487 ], [ -124.382370932805671, 43.270816368178956 ], [ -124.424591604733905, 43.128032978987619 ], [ -124.411941513631575, 43.126649996779079 ], [ -124.405699726186754, 43.147906144320544 ], [ -124.351669712600255, 43.16900717500053 ], [ -124.338057471031419, 43.154147209233052 ], [ -124.337783413902841, 43.13886932552407 ], [ -124.355284377895003, 43.16679423274374 ], [ -124.404173803827675, 43.144422028252187 ], [ -124.407912816619003, 43.124574479720749 ], [ -124.433334046808199, 43.117478140586051 ], [ -124.473618091121054, 42.971104661020064 ], [ -124.534728336519436, 42.878872811766406 ], [ -124.537368724091323, 42.850813344857002 ], [ -124.56500089234936, 42.841640834252082 ], [ -124.525834114196414, 42.799989065906182 ], [ -124.512221763931421, 42.734574888788941 ], [ -124.472366323806909, 42.72942994748697 ], [ -124.453338228323332, 42.678315088043945 ], [ -124.414031033610001, 42.659013087007814 ], [ -124.401946027737139, 42.628308607306366 ], [ -124.408477668286494, 42.595394171985724 ], [ -124.391816024518818, 42.563870885294776 ], [ -124.436247964197577, 42.438169700301998 ], [ -124.417785900767782, 42.429564834222838 ], [ -124.37902816419124, 42.449004057939987 ], [ -124.377914723956138, 42.438030358122866 ], [ -124.428054318201703, 42.420395422058348 ], [ -124.434311128173064, 42.328168572903778 ], [ -124.41236834454557, 42.307204840856713 ], [ -124.413329807800892, 42.253741855666384 ], [ -124.361800539573707, 42.180676714756707 ], [ -124.351393147375433, 42.102480909497864 ], [ -124.287368498599065, 42.042342652294359 ], [ -124.256941810731021, 42.069294140285514 ], [ -124.266525774800527, 42.044979343807462 ], [ -124.207836242056146, 41.986378386153163 ], [ -124.210858669643642, 41.887592880137603 ], [ -124.25331705466067, 41.770973800883226 ], [ -124.169995194904558, 41.743584350435491 ], [ -124.146410497550193, 41.718296274379611 ], [ -124.134500134050015, 41.657431995873281 ], [ -124.080842416453294, 41.547691653781676 ], [ -124.061964766321893, 41.440796534869165 ], [ -124.106237255037726, 41.228195456713927 ], [ -124.13923268983379, 41.150280176262363 ], [ -124.164324230228914, 41.130428036782817 ], [ -124.152459291837715, 41.054335252928396 ], [ -124.133983192231597, 41.055378849178041 ], [ -124.110681934908911, 41.028239299512329 ], [ -124.120513345313356, 40.976667130137685 ], [ -124.15864367603757, 40.87344311154974 ], [ -124.232563137412797, 40.765404826782721 ], [ -124.220572092623712, 40.759798775802118 ], [ -124.198857732606641, 40.782849392730881 ], [ -124.149355579293442, 40.865599761930568 ], [ -124.088581867953295, 40.855230698321982 ], [ -124.082052983435233, 40.831942399855365 ], [ -124.121679840049126, 40.806835765730391 ], [ -124.181857483265645, 40.800762341339961 ], [ -124.197414145334946, 40.752140974497955 ], [ -124.220748701408553, 40.74079808434491 ], [ -124.209778234410408, 40.707582078451189 ], [ -124.225909715853618, 40.686633680103178 ], [ -124.265642484737853, 40.701807612537074 ], [ -124.225698848917091, 40.744808420931328 ], [ -124.234246163436922, 40.756613033616006 ], [ -124.382722165996938, 40.518788121910838 ], [ -124.408618984958778, 40.438211568135507 ], [ -124.367775963960398, 40.384581194698399 ], [ -124.347534709855267, 40.319332470252526 ], [ -124.360036739734156, 40.257392742761795 ], [ -124.186673931815463, 40.130138497660177 ], [ -124.108982522715692, 40.103335068729756 ], [ -124.080069832969571, 40.06702052895195 ], [ -124.079579521707743, 40.030315463062728 ], [ -124.035995974339443, 40.014383343676393 ], [ -123.928855388131183, 39.90962463064885 ], [ -123.906529133471821, 39.862882074975523 ], [ -123.848602132063093, 39.827757773928901 ], [ -123.830121813070079, 39.723112537198119 ], [ -123.791783971515216, 39.682680978922228 ], [ -123.788233092893847, 39.599260141511884 ], [ -123.7668345113604, 39.548295864431047 ], [ -123.804357802836435, 39.490023294995638 ], [ -123.826912885348136, 39.349343310164748 ], [ -123.799335110080548, 39.319268586466599 ], [ -123.808954165040021, 39.303834091480518 ], [ -123.792733620127962, 39.30164341594692 ], [ -123.802765582114475, 39.27932678542183 ], [ -123.766707502155654, 39.225607540097528 ], [ -123.772052047803157, 39.198710365782013 ], [ -123.718783183943415, 39.134076455520621 ], [ -123.690062045558619, 39.051544773432695 ], [ -123.702904043755083, 38.990515173386811 ], [ -123.741204519885727, 38.956417775868886 ], [ -123.727095846832967, 38.919748678427645 ], [ -123.659068704900903, 38.873405100477036 ], [ -123.600868301235465, 38.807690478244346 ], [ -123.455018301524703, 38.713098865228076 ], [ -123.33239904587839, 38.565993235955126 ], [ -123.127450515864282, 38.45134931294384 ], [ -123.066248317116774, 38.359342102008171 ], [ -123.07673003682001, 38.322722181502449 ], [ -123.063272141088319, 38.301875042489435 ], [ -123.050374380868888, 38.302124602264129 ], [ -123.059358751825599, 38.311592710279754 ], [ -123.055774982288426, 38.337217246336458 ], [ -123.035029288218652, 38.317212840038195 ], [ -123.049325613944362, 38.313886550093123 ], [ -123.052447908140294, 38.305476394450871 ], [ -123.022829589043582, 38.31157841493264 ], [ -122.985789697191606, 38.273609527587624 ], [ -122.978559518592448, 38.270125069104132 ], [ -122.97037743571093, 38.274895509237872 ], [ -122.966608716531468, 38.273952642366417 ], [ -122.971381013783429, 38.231824045601513 ], [ -122.953074281642643, 38.232620248547612 ], [ -122.952094644570792, 38.214287921595066 ], [ -122.924430480118971, 38.218932961569685 ], [ -122.863904357047545, 38.119561594479627 ], [ -122.824284440817507, 38.091267042444919 ], [ -122.83423302746759, 38.083084156855612 ], [ -122.892836492624625, 38.133223517705233 ], [ -122.994224830098759, 38.241304274822276 ], [ -122.947457849196326, 38.15445891581178 ], [ -123.02297676183322, 37.995245186745223 ], [ -122.963399254311952, 37.99002316113036 ], [ -122.982518129046568, 38.005430880135371 ], [ -122.934575049519637, 38.034593762615678 ], [ -122.963352773682502, 38.056323149050542 ], [ -122.947753494637809, 38.049345741058055 ], [ -122.957189867302773, 38.06130976504879 ], [ -122.956105010561686, 38.077559816318626 ], [ -122.943540396853564, 38.060537884905962 ], [ -122.934178185505232, 38.089293426768236 ], [ -122.927491159767897, 38.09108760132321 ], [ -122.931864547541494, 38.064105368315573 ], [ -122.910288654740668, 38.072414370217793 ], [ -122.933755308076769, 38.053128594089678 ], [ -122.931360198306706, 38.036173752025647 ], [ -122.913018099493186, 38.033615402502782 ], [ -122.908182983951761, 38.051673881721591 ], [ -122.90722536009595, 38.03380931404034 ], [ -122.891773206230141, 38.043313834050615 ], [ -122.887309747976275, 38.028627415731378 ], [ -122.929105432333472, 38.030665424783272 ], [ -122.819899318351361, 37.996456937090279 ], [ -122.725416648469846, 37.90311444973014 ], [ -122.701120045235982, 37.89383696025817 ], [ -122.681877021532429, 37.905882769727683 ], [ -122.691203464661143, 37.933106633677021 ], [ -122.681529618757537, 37.929493598992167 ], [ -122.663449045574396, 37.912462494308045 ], [ -122.650377903318613, 37.906475637262609 ], [ -122.646331619089395, 37.902371591616252 ], [ -122.660373541926646, 37.909154785331665 ], [ -122.679606887181293, 37.90614871207876 ], [ -122.552228768588122, 37.840928009132767 ], [ -122.53936031590483, 37.853113868226487 ], [ -122.544385079277461, 37.917163173662381 ], [ -122.591113203552325, 38.008069703088637 ], [ -122.565246871614562, 38.025795634149901 ], [ -122.572670864431203, 38.04055004906175 ], [ -122.528538802157186, 38.033747760919987 ], [ -122.518907537296357, 38.05244667378976 ], [ -122.587152724602404, 38.086847171802724 ], [ -122.582184332310476, 38.122809018043412 ], [ -122.500578554784312, 38.254364573815785 ], [ -122.416819393351261, 38.291164005925879 ], [ -122.380091525923334, 38.242839599975149 ], [ -122.360294443810446, 38.244734175540131 ], [ -122.339712537769785, 38.351931875155067 ], [ -122.27724924180562, 38.362180135715676 ], [ -122.271189498851427, 38.399471627443148 ], [ -122.30149399967118, 38.426062193891617 ], [ -122.309242482833056, 38.506289860049506 ], [ -122.33623409569968, 38.540304604601872 ], [ -122.410150183002685, 38.575270832247035 ], [ -122.439224883011946, 38.611867570151979 ], [ -122.537520538355167, 38.645506748136143 ], [ -122.599622147433124, 38.880810101732408 ], [ -122.637478152432521, 39.226413317701109 ], [ -122.664876039166131, 39.273172932946864 ], [ -122.656692938493393, 39.296758050240243 ], [ -122.677899497948346, 39.351191006677567 ], [ -122.670125094797257, 39.407005398404827 ], [ -122.649360647497588, 39.415959990678026 ], [ -122.676463206793386, 39.479075422208162 ], [ -122.637157523944666, 39.504268735742656 ], [ -122.622246353509297, 39.600459314302391 ], [ -122.662310236915673, 39.646797699380436 ], [ -122.650428606928187, 39.732406509156547 ], [ -122.622389776730898, 39.754092171250804 ], [ -122.697054142699258, 39.868853727272921 ], [ -122.693147709091818, 39.929121033237045 ], [ -122.706380206738942, 39.95726207004062 ], [ -122.693499308795694, 40.058721070549694 ], [ -122.753977011774964, 40.113041272193186 ], [ -122.765842284339442, 40.160321975665653 ], [ -122.840347062800959, 40.194554798092959 ], [ -122.878796654777162, 40.286972158081745 ], [ -122.939290398074149, 40.267626746362289 ], [ -122.93877459711608, 40.322863692553547 ], [ -122.909433522370549, 40.369076257113306 ], [ -122.910916104610422, 40.430548072040615 ], [ -122.838903321019032, 40.46437990132079 ], [ -122.756852041095712, 40.472357656803929 ], [ -122.705547041770785, 40.557236595018878 ], [ -122.579328769481947, 40.561593685966358 ], [ -122.552357080350035, 40.504618072308389 ], [ -122.484727691764519, 40.519732787713899 ], [ -122.456841277823173, 40.552163829051871 ], [ -122.413935444658065, 40.548278464349416 ], [ -122.38917621623942, 40.570069090680789 ], [ -122.392610742370223, 40.607159069702583 ], [ -122.224910090247533, 40.642650153866811 ], [ -122.089304630750462, 40.708828282488575 ], [ -122.049998741289244, 40.746276719258887 ], [ -121.953030145555687, 40.793029731579537 ], [ -121.892667750326297, 40.869163699507688 ], [ -121.741744285079733, 40.862391077981535 ], [ -121.677969871008969, 40.876036758577122 ], [ -121.564398755924728, 40.971678013447928 ], [ -121.583031600768152, 40.999117249349531 ], [ -121.623603769826914, 41.016777251134748 ], [ -121.637780955589761, 41.053577584030393 ], [ -121.646011637328144, 41.451028998601281 ], [ -121.520528283061452, 41.519478559539152 ], [ -121.447165409751463, 41.475500249125346 ], [ -121.448516135477291, 41.58180100109206 ], [ -121.515458728790421, 41.596960079886337 ], [ -121.529854916632985, 41.64665231478088 ], [ -121.586520991504969, 41.679013867056256 ], [ -121.703346242926116, 41.660692746903948 ], [ -121.738626368374184, 41.63140701349365 ], [ -121.864410275578734, 41.586358576579585 ], [ -121.952539188405154, 41.585844223326092 ], [ -121.985861701592768, 41.61307485544225 ], [ -122.003584266490833, 41.719145011399661 ], [ -122.057583954749916, 41.760735854032873 ], [ -122.102719556468855, 41.771716526317952 ], [ -122.075636182492602, 41.802882205286004 ], [ -122.120816800587065, 41.85816123995032 ], [ -122.112133629355199, 41.955032912613696 ], [ -122.058138783015494, 42.005511658352255 ] ], [ [ -123.986821255150659, 46.205280287228426 ], [ -123.998199689340169, 46.225265253212832 ], [ -123.993204015213038, 46.223162543675699 ], [ -123.986821255150659, 46.205280287228426 ] ] ] } }
]
}
